STARLINK-31812          
1 59800U 24093U   26068.42330934 -.00002089  00000+0 -66400-4 0  9990
2 59800  43.0000 210.4852 0001443 270.2523  89.8163 15.27577257102721
FLOCK 4G-26             
1 62633U 25009AA  26068.80489479  .00011283  00000+0  42469-3 0  9999
2 62633  97.4054 151.3913 0001988 299.1273  60.9767 15.27281631 63733
